
    {
        "ARG_OF_PERICENTER": 68.9604,
        "BSTAR": 0.00050986,
        "CLASSIFICATION_TYPE": "U",
        "ECCENTRICITY": 0.001384,
        "ELEMENT_SET_NO": 999,
        "EPHEMERIS_TYPE": 0,
        "EPOCH": "2026-03-29T20:54:18.108288",
        "INCLINATION": 98.1088,
        "MEAN_ANOMALY": 291.3093,
        "MEAN_MOTION": 14.932409,
        "MEAN_MOTION_DDOT": 0,
        "MEAN_MOTION_DOT": 5.282e-05,
        "NORAD_CAT_ID": 39151,
        "OBJECT_ID": "2013-018B",
        "OBJECT_NAME": "NEE-01 PEGASO",
        "RA_OF_ASC_NODE": 230.4781,
        "REV_AT_EPOCH": 69886
    },
    {
        "ARG_OF_PERICENTER": 90.7198,
        "BSTAR": 0.00050118,
        "CLASSIFICATION_TYPE": "U",
        "ECCENTRICITY": 0.0427029,
        "ELEMENT_SET_NO": 999,
        "EPHEMERIS_TYPE": 0,
        "EPOCH": "2026-03-29T03:22:25.281696",
        "INCLINATION": 80.9905,
        "MEAN_ANOMALY": 274.2952,
        "MEAN_MOTION": 14.88885074,
        "MEAN_MOTION_DDOT": 0,
        "MEAN_MOTION_DOT": 0.00029281,
        "NORAD_CAT_ID": 39269,
        "OBJECT_ID": "2013-055E",
        "OBJECT_NAME": "POPACS 2",
        "RA_OF_ASC_NODE": 235.6658,
        "REV_AT_EPOCH": 65129
    },
    {
        "ARG_OF_PERICENTER": 310.8426,
        "BSTAR": 0.0002509,
        "CLASSIFICATION_TYPE": "U",
        "ECCENTRICITY": 0.0557084,
        "ELEMENT_SET_NO": 999,
        "EPHEMERIS_TYPE": 0,
        "EPOCH": "2026-03-30T01:04:46.191648",
        "INCLINATION": 81.0029,
        "MEAN_ANOMALY": 44.5713,
        "MEAN_MOTION": 14.54471739,
        "MEAN_MOTION_DDOT": 0,
        "MEAN_MOTION_DOT": 0.00010329,
        "NORAD_CAT_ID": 39270,
        "OBJECT_ID": "2013-055F",
        "OBJECT_NAME": "POPACS 3",
        "RA_OF_ASC_NODE": 314.908,
        "REV_AT_EPOCH": 62704
    },
    {
        "ARG_OF_PERICENTER": 153.3083,
        "BSTAR": 0.0005082,
        "CLASSIFICATION_TYPE": "U",
        "ECCENTRICITY": 0.0044669,
        "ELEMENT_SET_NO": 999,
        "EPHEMERIS_TYPE": 0,
        "EPOCH": "2026-03-30T03:17:34.067040",
        "INCLINATION": 97.8136,
        "MEAN_ANOMALY": 207.0453,
        "MEAN_MOTION": 15.00511838,
        "MEAN_MOTION_DDOT": 0,
        "MEAN_MOTION_DOT": 6.48e-05,
        "NORAD_CAT_ID": 39417,
        "OBJECT_ID": "2013-066B",
        "OBJECT_NAME": "ZACUBE-1 (TSHEPISOSAT)",
        "RA_OF_ASC_NODE": 51.0601,
        "REV_AT_EPOCH": 66887
    },
    {
        "ARG_OF_PERICENTER": 121.098,
        "BSTAR": 0.00033201,
        "CLASSIFICATION_TYPE": "U",
        "ECCENTRICITY": 0.0164615,
        "ELEMENT_SET_NO": 999,
        "EPHEMERIS_TYPE": 0,
        "EPOCH": "2026-03-30T00:21:56.615904",
        "INCLINATION": 97.7083,
        "MEAN_ANOMALY": 240.6491,
        "MEAN_MOTION": 14.57942435,
        "MEAN_MOTION_DDOT": 0,
        "MEAN_MOTION_DOT": 1.789e-05,
        "NORAD_CAT_ID": 39423,
        "OBJECT_ID": "2013-066H",
        "OBJECT_NAME": "WNISAT-1",
        "RA_OF_ASC_NODE": 243.8453,
        "REV_AT_EPOCH": 65519
    },
    {
        "ARG_OF_PERICENTER": 131.052,
        "BSTAR": 0.00041291,
        "CLASSIFICATION_TYPE": "U",
        "ECCENTRICITY": 0.0091597,
        "ELEMENT_SET_NO": 999,
        "EPHEMERIS_TYPE": 0,
        "EPOCH": "2026-03-30T04:58:11.908128",
        "INCLINATION": 97.8283,
        "MEAN_ANOMALY": 229.8655,
        "MEAN_MOTION": 14.81307122,
        "MEAN_MOTION_DDOT": 0,
        "MEAN_MOTION_DOT": 3.409e-05,
        "NORAD_CAT_ID": 39427,
        "OBJECT_ID": "2013-066M",
        "OBJECT_NAME": "TRITON-1",
        "RA_OF_ASC_NODE": 0.8235,
        "REV_AT_EPOCH": 66239
    },
    {
        "ARG_OF_PERICENTER": 331.8404,
        "BSTAR": 0.00031758,
        "CLASSIFICATION_TYPE": "U",
        "ECCENTRICITY": 0.0128622,
        "ELEMENT_SET_NO": 999,
        "EPHEMERIS_TYPE": 0,
        "EPOCH": "2026-03-30T04:32:08.100960",
        "INCLINATION": 97.6556,
        "MEAN_ANOMALY": 27.5887,
        "MEAN_MOTION": 14.69174238,
        "MEAN_MOTION_DDOT": 0,
        "MEAN_MOTION_DOT": 2.068e-05,
        "NORAD_CAT_ID": 39430,
        "OBJECT_ID": "2013-066Q",
        "OBJECT_NAME": "GOMX-1",
        "RA_OF_ASC_NODE": 294.6154,
        "REV_AT_EPOCH": 65831
    },
    {
        "ARG_OF_PERICENTER": 290.5003,
        "BSTAR": 0.0007004,
        "CLASSIFICATION_TYPE": "U",
        "ECCENTRICITY": 0.0056539,
        "ELEMENT_SET_NO": 999,
        "EPHEMERIS_TYPE": 0,
        "EPOCH": "2026-03-30T01:41:55.200192",
        "INCLINATION": 97.8836,
        "MEAN_ANOMALY": 69.0153,
        "MEAN_MOTION": 14.93186221,
        "MEAN_MOTION_DDOT": 0,
        "MEAN_MOTION_DOT": 7.488e-05,
        "NORAD_CAT_ID": 39440,
        "OBJECT_ID": "2013-066AA",
        "OBJECT_NAME": "CUBEBUG-2 (LO-74)",
        "RA_OF_ASC_NODE": 37.7821,
        "REV_AT_EPOCH": 66518
    },
    {
        "ARG_OF_PERICENTER": 334.7799,
        "BSTAR": 0.00040702494,
        "CLASSIFICATION_TYPE": "U",
        "ECCENTRICITY": 0.00659296,
        "ELEMENT_SET_NO": 999,
        "EPHEMERIS_TYPE": 0,
        "EPOCH": "2026-03-28T18:25:31.973088",
        "INCLINATION": 97.8832,
        "MEAN_ANOMALY": 25.0201,
        "MEAN_MOTION": 14.86287699,
        "MEAN_MOTION_DDOT": 0,
        "MEAN_MOTION_DOT": 3.667e-05,
        "NORAD_CAT_ID": 39441,
        "OBJECT_ID": "2013-066AB",
        "OBJECT_NAME": "NEE-02 KRYSAOR",
        "RA_OF_ASC_NODE": 27.6007,
        "REV_AT_EPOCH": 66425
    },
    {
        "ARG_OF_PERICENTER": 114.7543,
        "BSTAR": 0.00063794,
        "CLASSIFICATION_TYPE": "U",
        "ECCENTRICITY": 0.0038894,
        "ELEMENT_SET_NO": 999,
        "EPHEMERIS_TYPE": 0,
        "EPOCH": "2026-03-29T03:33:35.185824",
        "INCLINATION": 97.8202,
        "MEAN_ANOMALY": 245.774,
        "MEAN_MOTION": 15.08248025,
        "MEAN_MOTION_DDOT": 0,
        "MEAN_MOTION_DOT": 9.994e-05,
        "NORAD_CAT_ID": 39444,
        "OBJECT_ID": "2013-066AE",
        "OBJECT_NAME": "FUNCUBE-1 (AO-73)",
        "RA_OF_ASC_NODE": 58.0254,
        "REV_AT_EPOCH": 66759
    },
    {
        "ARG_OF_PERICENTER": 222.2471,
        "BSTAR": 0.00049744,
        "CLASSIFICATION_TYPE": "U",
        "ECCENTRICITY": 0.0048542,
        "ELEMENT_SET_NO": 999,
        "EPHEMERIS_TYPE": 0,
        "EPOCH": "2026-03-30T03:01:36.297120",
        "INCLINATION": 97.862,
        "MEAN_ANOMALY": 137.5007,
        "MEAN_MOTION": 14.96386543,
        "MEAN_MOTION_DDOT": 0,
        "MEAN_MOTION_DOT": 5.709e-05,
        "NORAD_CAT_ID": 39446,
        "OBJECT_ID": "2013-066AG",
        "OBJECT_NAME": "UWE-3",
        "RA_OF_ASC_NODE": 44.7445,
        "REV_AT_EPOCH": 66575
    },
    {
        "ARG_OF_PERICENTER": 169.9229,
        "BSTAR": 0.00028866,
        "CLASSIFICATION_TYPE": "U",
        "ECCENTRICITY": 0.007915,
        "ELEMENT_SET_NO": 999,
        "EPHEMERIS_TYPE": 0,
        "EPOCH": "2026-03-29T21:06:03.557376",
        "INCLINATION": 97.9604,
        "MEAN_ANOMALY": 190.3589,
        "MEAN_MOTION": 14.72527174,
        "MEAN_MOTION_DDOT": 0,
        "MEAN_MOTION_DOT": 1.874e-05,
        "NORAD_CAT_ID": 40020,
        "OBJECT_ID": "2014-033L",
        "OBJECT_NAME": "BRITE-CA1 (TORONTO)",
        "RA_OF_ASC_NODE": 219.3344,
        "REV_AT_EPOCH": 63054
    },
    {
        "ARG_OF_PERICENTER": 15.7,
        "BSTAR": 0.0013417,
        "CLASSIFICATION_TYPE": "U",
        "ECCENTRICITY": 0.0003612,
        "ELEMENT_SET_NO": 999,
        "EPHEMERIS_TYPE": 0,
        "EPOCH": "2026-03-30T02:03:35.013888",
        "INCLINATION": 98.0596,
        "MEAN_ANOMALY": 344.4362,
        "MEAN_MOTION": 15.52447045,
        "MEAN_MOTION_DDOT": 0,
        "MEAN_MOTION_DOT": 0.0008267,
        "NORAD_CAT_ID": 40021,
        "OBJECT_ID": "2014-033M",
        "OBJECT_NAME": "DUCHIFAT-1",
        "RA_OF_ASC_NODE": 137.9549,
        "REV_AT_EPOCH": 64343
    }