NEE-01 PEGASO           
1 39151U 13018B   26088.87104292  .00005282  00000+0  50986-3 0  9996
2 39151  98.1088 230.4781 0013840  68.9604 291.3093 14.93240900698865
POPACS 2                
1 39269U 13055E   26088.14057039  .00029281  00000+0  50118-3 0  9995
2 39269  80.9905 235.6658 0427029  90.7198 274.2952 14.88885074651292
POPACS 3                
1 39270U 13055F   26089.04497907  .00010329  00000+0  25090-3 0  9993
2 39270  81.0029 314.9080 0557084 310.8426  44.5713 14.54471739627049
ZACUBE-1 (TSHEPISOSAT)  
1 39417U 13066B   26089.13719985  .00006480  00000+0  50820-3 0  9993
2 39417  97.8136  51.0601 0044669 153.3083 207.0453 15.00511838668873
WNISAT-1                
1 39423U 13066H   26089.01523861  .00001789  00000+0  33201-3 0  9994
2 39423  97.7083 243.8453 0164615 121.0980 240.6491 14.57942435655196
TRITON-1                
1 39427U 13066M   26089.20708227  .00003409  00000+0  41291-3 0  9999
2 39427  97.8283   0.8235 0091597 131.0520 229.8655 14.81307122662397
GOMX-1                  
1 39430U 13066Q   26089.18898265  .00002068  00000+0  31758-3 0  9999
2 39430  97.6556 294.6154 0128622 331.8404  27.5887 14.69174238658319
CUBEBUG-2 (LO-74)       
1 39440U 13066AA  26089.07077778  .00007488  00000+0  70040-3 0  9994
2 39440  97.8836  37.7821 0056539 290.5003  69.0153 14.93186221665185
NEE-02 KRYSAOR          
1 39441U 13066AB  26087.76773117  .00003667  00000+0  40702-3 0  9996
2 39441  97.8832  27.6007 0065929 334.7799  25.0201 14.86287699664258
FUNCUBE-1 (AO-73)       
1 39444U 13066AE  26088.14832391  .00009994  00000+0  63794-3 0  9997
2 39444  97.8202  58.0254 0038894 114.7543 245.7740 15.08248025667592
UWE-3                   
1 39446U 13066AG  26089.12611455  .00005709  00000+0  49744-3 0  9993
2 39446  97.8620  44.7445 0048542 222.2471 137.5007 14.96386543665752
BRITE-CA1 (TORONTO)     
1 40020U 14033L   26088.87920784  .00001874  00000+0  28866-3 0  9998
2 40020  97.9604 219.3344 0079150 169.9229 190.3589 14.72527174630542
DUCHIFAT-1              
1 40021U 14033M   26089.08582192  .00082670  00000+0  13417-2 0  9998
2 40021  98.0596 137.9549 0003612  15.7000 344.4362 15.52447045643432
